STARLINK-36079          
1 66897U 25283V   25349.33574231 -.00464059  00000+0 -16941-2 0  9999
2 66897  53.1549  60.6905 0000309 314.4103  45.6898 15.88733906  2865
STARLINK-36065          
1 66898U 25283W   25349.33525412 -.00487437  00000+0 -17836-2 0  9996
2 66898  53.1545  60.6866 0000469   8.0467 352.0567 15.88739645  2868
STARLINK-36064          
1 66899U 25283X   25349.33479219 -.00471703  00000+0 -17199-2 0  9991
2 66899  53.1544  60.6835 0000425 359.8221   0.2804 15.88774535  2864
STARLINK-36074          
1 66900U 25283Y   25349.33430918 -.00475799  00000+0 -17338-2 0  9991
2 66900  53.1546  60.6802 0000415 355.1558   4.9464 15.88796215  2866
STARLINK-36043          
1 66901U 25283Z   25349.33388476 -.00492535  00000+0 -17970-2 0  9992
2 66901  53.1548  60.6773 0000631  19.7306 340.3744 15.88808295  2860
STARLINK-35983          
1 66902U 25283AA  25349.33337064 -.00491398  00000+0 -17907-2 0  9996
2 66902  53.1546  60.6741 0000402   4.2078 355.8951 15.88830626  2869
STARLINK-36077          
1 66903U 25283AB  25349.33295165 -.00430662  00000+0 -15535-2 0  9994
2 66903  53.1550  60.6712 0000311  69.0801 291.0259 15.88895398  2864
STARLINK-36059          
1 66904U 25283AC  25349.26960461 -.00483028  00000+0 -17376-2 0  9994
2 66904  53.1548  60.9869 0000999  18.9453 341.1611 15.89064506  2854
STARLINK-36075          
1 66905U 25283AD  25349.26922149 -.00486013  00000+0 -17467-2 0  9994
2 66905  53.1550  60.9845 0000909  20.5581 339.5481 15.89090779  2851
1998-067XS              
1 66906U 98067XS  25349.11381527  .00019441  00000+0  33919-3 0  9994
2 66906  51.6305 130.6430 0003358 213.8490 146.2285 15.50707714  1985
1998-067XT              
1 66907U 98067XT  25349.23838655  .00048484  00000+0  79982-3 0  9996
2 66907  51.6297 129.9756 0004099 241.5907 118.4670 15.51783963  2006
1998-067XU              
1 66908U 98067XU  25349.10912531  .00050243  00000+0  82605-3 0  9991
2 66908  51.6293 130.6123 0004218 240.3757 119.6813 15.51862591  1986
