CCSDS_OMM_VERS = 2.0
CREATION_DATE  = 
ORIGINATOR     = 

OBJECT_NAME    = STARLINK-36079
OBJECT_ID      = 2025-283V
CENTER_NAME    = EARTH
REF_FRAME      = TEME
TIME_SYSTEM    = UTC
MEAN_ELEMENT_THEORY = SGP/SGP4

EPOCH          = 2025-12-15T08:03:28.135584
MEAN_MOTION    = 15.88733906
ECCENTRICITY   = .00003099
INCLINATION    = 53.1549
RA_OF_ASC_NODE = 60.6905
ARG_OF_PERICENTER = 314.4103
MEAN_ANOMALY   = 45.6898

EPHEMERIS_TYPE = 0
CLASSIFICATION_TYPE = U
NORAD_CAT_ID   = 66897
ELEMENT_SET_NO = 999
REV_AT_EPOCH   = 286
BSTAR          = -.16941017E-2
MEAN_MOTION_DOT = -.464059E-2
MEAN_MOTION_DDOT = 0

CCSDS_OMM_VERS = 2.0
CREATION_DATE  = 
ORIGINATOR     = 

OBJECT_NAME    = STARLINK-36065
OBJECT_ID      = 2025-283W
CENTER_NAME    = EARTH
REF_FRAME      = TEME
TIME_SYSTEM    = UTC
MEAN_ELEMENT_THEORY = SGP/SGP4

EPOCH          = 2025-12-15T08:02:45.955968
MEAN_MOTION    = 15.88739645
ECCENTRICITY   = .00004694
INCLINATION    = 53.1545
RA_OF_ASC_NODE = 60.6866
ARG_OF_PERICENTER = 8.0467
MEAN_ANOMALY   = 352.0567

EPHEMERIS_TYPE = 0
CLASSIFICATION_TYPE = U
NORAD_CAT_ID   = 66898
ELEMENT_SET_NO = 999
REV_AT_EPOCH   = 286
BSTAR          = -.17836193E-2
MEAN_MOTION_DOT = -.487437E-2
MEAN_MOTION_DDOT = 0

CCSDS_OMM_VERS = 2.0
CREATION_DATE  = 
ORIGINATOR     = 

OBJECT_NAME    = STARLINK-36064
OBJECT_ID      = 2025-283X
CENTER_NAME    = EARTH
REF_FRAME      = TEME
TIME_SYSTEM    = UTC
MEAN_ELEMENT_THEORY = SGP/SGP4

EPOCH          = 2025-12-15T08:02:06.045216
MEAN_MOTION    = 15.88774535
ECCENTRICITY   = .00004255
INCLINATION    = 53.1544
RA_OF_ASC_NODE = 60.6835
ARG_OF_PERICENTER = 359.8221
MEAN_ANOMALY   = 0.2804

EPHEMERIS_TYPE = 0
CLASSIFICATION_TYPE = U
NORAD_CAT_ID   = 66899
ELEMENT_SET_NO = 999
REV_AT_EPOCH   = 286
BSTAR          = -.17199414E-2
MEAN_MOTION_DOT = -.471703E-2
MEAN_MOTION_DDOT = 0

CCSDS_OMM_VERS = 2.0
CREATION_DATE  = 
ORIGINATOR     = 

OBJECT_NAME    = STARLINK-36074
OBJECT_ID      = 2025-283Y
CENTER_NAME    = EARTH
REF_FRAME      = TEME
TIME_SYSTEM    = UTC
MEAN_ELEMENT_THEORY = SGP/SGP4

EPOCH          = 2025-12-15T08:01:24.313152
MEAN_MOTION    = 15.88796215
ECCENTRICITY   = .0000415
INCLINATION    = 53.1546
RA_OF_ASC_NODE = 60.6802
ARG_OF_PERICENTER = 355.1558
MEAN_ANOMALY   = 4.9464

EPHEMERIS_TYPE = 0
CLASSIFICATION_TYPE = U
NORAD_CAT_ID   = 66900
ELEMENT_SET_NO = 999
REV_AT_EPOCH   = 286
BSTAR          = -.17337971E-2
MEAN_MOTION_DOT = -.475799E-2
MEAN_MOTION_DDOT = 0

CCSDS_OMM_VERS = 2.0
CREATION_DATE  = 
ORIGINATOR     = 

OBJECT_NAME    = STARLINK-36043
OBJECT_ID      = 2025-283Z
CENTER_NAME    = EARTH
REF_FRAME      = TEME
TIME_SYSTEM    = UTC
MEAN_ELEMENT_THEORY = SGP/SGP4

EPOCH          = 2025-12-15T08:00:47.643264
MEAN_MOTION    = 15.88808295
ECCENTRICITY   = .00006318
INCLINATION    = 53.1548
RA_OF_ASC_NODE = 60.6773
ARG_OF_PERICENTER = 19.7306
MEAN_ANOMALY   = 340.3744

EPHEMERIS_TYPE = 0
CLASSIFICATION_TYPE = U
NORAD_CAT_ID   = 66901
ELEMENT_SET_NO = 999
REV_AT_EPOCH   = 286
BSTAR          = -.17970213E-2
MEAN_MOTION_DOT = -.492535E-2
MEAN_MOTION_DDOT = 0

CCSDS_OMM_VERS = 2.0
CREATION_DATE  = 
ORIGINATOR     = 

OBJECT_NAME    = STARLINK-35983
OBJECT_ID      = 2025-283AA
CENTER_NAME    = EARTH
REF_FRAME      = TEME
TIME_SYSTEM    = UTC
MEAN_ELEMENT_THEORY = SGP/SGP4

EPOCH          = 2025-12-15T08:00:03.223296
MEAN_MOTION    = 15.88830626
ECCENTRICITY   = .00004025
INCLINATION    = 53.1546
RA_OF_ASC_NODE = 60.6741
ARG_OF_PERICENTER = 4.2078
MEAN_ANOMALY   = 355.8951

EPHEMERIS_TYPE = 0
CLASSIFICATION_TYPE = U
NORAD_CAT_ID   = 66902
ELEMENT_SET_NO = 999
REV_AT_EPOCH   = 286
BSTAR          = -.17907228E-2
MEAN_MOTION_DOT = -.491398E-2
MEAN_MOTION_DDOT = 0

CCSDS_OMM_VERS = 2.0
CREATION_DATE  = 
ORIGINATOR     = 

OBJECT_NAME    = STARLINK-36077
OBJECT_ID      = 2025-283AB
CENTER_NAME    = EARTH
REF_FRAME      = TEME
TIME_SYSTEM    = UTC
MEAN_ELEMENT_THEORY = SGP/SGP4

EPOCH          = 2025-12-15T07:59:27.022560
MEAN_MOTION    = 15.88895398
ECCENTRICITY   = .00003116
INCLINATION    = 53.1550
RA_OF_ASC_NODE = 60.6712
ARG_OF_PERICENTER = 69.0801
MEAN_ANOMALY   = 291.0259

EPHEMERIS_TYPE = 0
CLASSIFICATION_TYPE = U
NORAD_CAT_ID   = 66903
ELEMENT_SET_NO = 999
REV_AT_EPOCH   = 286
BSTAR          = -.15534739E-2
MEAN_MOTION_DOT = -.430662E-2
MEAN_MOTION_DDOT = 0

CCSDS_OMM_VERS = 2.0
CREATION_DATE  = 
ORIGINATOR     = 

OBJECT_NAME    = STARLINK-36059
OBJECT_ID      = 2025-283AC
CENTER_NAME    = EARTH
REF_FRAME      = TEME
TIME_SYSTEM    = UTC
MEAN_ELEMENT_THEORY = SGP/SGP4

EPOCH          = 2025-12-15T06:28:13.838304
MEAN_MOTION    = 15.89064506
ECCENTRICITY   = .00009991
INCLINATION    = 53.1548
RA_OF_ASC_NODE = 60.9869
ARG_OF_PERICENTER = 18.9453
MEAN_ANOMALY   = 341.1611

EPHEMERIS_TYPE = 0
CLASSIFICATION_TYPE = U
NORAD_CAT_ID   = 66904
ELEMENT_SET_NO = 999
REV_AT_EPOCH   = 285
BSTAR          = -.17376251E-2
MEAN_MOTION_DOT = -.483028E-2
MEAN_MOTION_DDOT = 0

CCSDS_OMM_VERS = 2.0
CREATION_DATE  = 
ORIGINATOR     = 

OBJECT_NAME    = STARLINK-36075
OBJECT_ID      = 2025-283AD
CENTER_NAME    = EARTH
REF_FRAME      = TEME
TIME_SYSTEM    = UTC
MEAN_ELEMENT_THEORY = SGP/SGP4

EPOCH          = 2025-12-15T06:27:40.736736
MEAN_MOTION    = 15.89090779
ECCENTRICITY   = .00009099
INCLINATION    = 53.1550
RA_OF_ASC_NODE = 60.9845
ARG_OF_PERICENTER = 20.5581
MEAN_ANOMALY   = 339.5481

EPHEMERIS_TYPE = 0
CLASSIFICATION_TYPE = U
NORAD_CAT_ID   = 66905
ELEMENT_SET_NO = 999
REV_AT_EPOCH   = 285
BSTAR          = -.17466786E-2
MEAN_MOTION_DOT = -.486013E-2
MEAN_MOTION_DDOT = 0

CCSDS_OMM_VERS = 2.0
CREATION_DATE  = 
ORIGINATOR     = 

OBJECT_NAME    = 1998-067XS
OBJECT_ID      = 1998-067XS
CENTER_NAME    = EARTH
REF_FRAME      = TEME
TIME_SYSTEM    = UTC
MEAN_ELEMENT_THEORY = SGP/SGP4

EPOCH          = 2025-12-15T02:43:53.639328
MEAN_MOTION    = 15.50707714
ECCENTRICITY   = .00033588
INCLINATION    = 51.6305
RA_OF_ASC_NODE = 130.6430
ARG_OF_PERICENTER = 213.8490
MEAN_ANOMALY   = 146.2285

EPHEMERIS_TYPE = 0
CLASSIFICATION_TYPE = U
NORAD_CAT_ID   = 66906
ELEMENT_SET_NO = 999
REV_AT_EPOCH   = 198
BSTAR          = .33919377E-3
MEAN_MOTION_DOT = .19441E-3
MEAN_MOTION_DDOT = 0

CCSDS_OMM_VERS = 2.0
CREATION_DATE  = 
ORIGINATOR     = 

OBJECT_NAME    = 1998-067XT
OBJECT_ID      = 1998-067XT
CENTER_NAME    = EARTH
REF_FRAME      = TEME
TIME_SYSTEM    = UTC
MEAN_ELEMENT_THEORY = SGP/SGP4

EPOCH          = 2025-12-15T05:43:16.597920
MEAN_MOTION    = 15.51783963
ECCENTRICITY   = .00040993
INCLINATION    = 51.6297
RA_OF_ASC_NODE = 129.9756
ARG_OF_PERICENTER = 241.5907
MEAN_ANOMALY   = 118.4670

EPHEMERIS_TYPE = 0
CLASSIFICATION_TYPE = U
NORAD_CAT_ID   = 66907
ELEMENT_SET_NO = 999
REV_AT_EPOCH   = 200
BSTAR          = .79982279E-3
MEAN_MOTION_DOT = .48484E-3
MEAN_MOTION_DDOT = 0

CCSDS_OMM_VERS = 2.0
CREATION_DATE  = 
ORIGINATOR     = 

OBJECT_NAME    = 1998-067XU
OBJECT_ID      = 1998-067XU
CENTER_NAME    = EARTH
REF_FRAME      = TEME
TIME_SYSTEM    = UTC
MEAN_ELEMENT_THEORY = SGP/SGP4

EPOCH          = 2025-12-15T02:37:08.426784
MEAN_MOTION    = 15.51862591
ECCENTRICITY   = .00042185
INCLINATION    = 51.6293
RA_OF_ASC_NODE = 130.6123
ARG_OF_PERICENTER = 240.3757
MEAN_ANOMALY   = 119.6813

EPHEMERIS_TYPE = 0
CLASSIFICATION_TYPE = U
NORAD_CAT_ID   = 66908
ELEMENT_SET_NO = 999
REV_AT_EPOCH   = 198
BSTAR          = .82604654E-3
MEAN_MOTION_DOT = .50243E-3
MEAN_MOTION_DDOT = 0

